STARLINK-30164          
1 57500U 23113F   26196.77139671  .00000786  00000+0  38109-4 0  9997
2 57500  43.0031  12.7311 0001661 273.7382  86.3279 15.27570498163262
STARLINK-30072          
1 57501U 23113G   26197.18556558  .00009589  00000+0  35807-3 0  9992
2 57501  43.0038  10.6653 0001014 255.2387 104.8352 15.27528791163210
STARLINK-30230          
1 57503U 23113J   26196.50726514  .00001232  00000+0  54295-4 0  9990
2 57503  43.0032  14.1702 0001465 274.2914  85.7770 15.27586576163112
STARLINK-30213          
1 57504U 23113K   26196.80094498  .00000536  00000+0  28994-4 0  9996
2 57504  43.0045  12.9383 0001308 273.1761  86.8941 15.27574098163266
STARLINK-30227          
1 57505U 23113L   26197.14129407  .00017523  00000+0  63850-3 0  9997
2 57505  42.9944   1.6080 0013564 287.5789  72.3581 15.27823740163427
STARLINK-30212          
1 57506U 23113M   26196.80408233  .00003500  00000+0  13572-3 0  9993
2 57506  43.0067  12.9698 0002235 305.0236  55.0406 15.27809063163103
STARLINK-30219          
1 57507U 23113N   26196.75941686  .00017788  00000+0  56803-3 0  9999
2 57507  43.0012  10.9029 0004106 276.7532  83.2854 15.32171204163286
STARLINK-30074          
1 57508U 23113P   26197.17527834 -.00000649  00000+0 -14056-4 0  9997
2 57508  43.0031  10.5962 0001561 264.7660  95.3014 15.27584139163114
STARLINK-30082          
1 57509U 23113Q   26196.50085213  .00001046  00000+0  47530-4 0  9997
2 57509  43.0031  14.1426 0002360 281.0582  79.0004 15.27580975163227
STARLINK-30153          
1 57510U 23113R   26196.48286429  .00001802  00000+0  74990-4 0  9998
2 57510  43.0062  14.0225 0001616 268.0877  91.9790 15.27583941163113
STARLINK-30147          
1 57511U 23113S   26196.88547588  .00012827  00000+0  47566-3 0  9996
2 57511  43.0073  11.8720 0001898 275.4291  84.6345 15.27522721163287
STARLINK-30157          
1 57512U 23113T   26196.69884778  .00003808  00000+0  14781-3 0  9993
2 57512  43.0045 347.3501 0001628 274.0617  86.0048 15.27588655163553
STARLINK-30168          
1 57513U 23113U   26196.88160397  .00001055  00000+0  47886-4 0  9994
2 57513  43.0043  11.8158 0001481 275.4820  84.5863 15.27574262163121
STARLINK-30231          
1 57514U 23113V   26196.89702736  .00000494  00000+0  27482-4 0  9991
2 57514  43.0023  11.9453 0001393 263.7538  96.3155 15.27576009163280
STARLINK-30081          
1 57515U 23113W   26196.94313931  .00000938  00000+0  43616-4 0  9993
2 57515  43.0045  11.4550 0001253 287.4784  72.5931 15.27578725163295
STARLINK-30149          
1 57516U 23113X   26196.89188457  .00000327  00000+0  21405-4 0  9995
2 57516  43.0041  11.9203 0001746 271.5941  88.4710 15.27580022163180
COSMOS 2569 [GLONASS-K2]
1 57517U 23114A   26196.87819896 -.00000013  00000+0  00000+0 0  9999
2 57517  65.3185  71.6532 0009655 295.9092  64.0686  2.13103741 22871
HJ-2F                   
1 57519U 23116A   26197.17034944  .00003827  00000+0  16711-3 0  9995
2 57519  97.3847 201.8925 0006528 308.5757  51.4894 15.22702121163161
STARLINK-30259          
1 57521U 23115A   26196.73476289  .00002450  00000+0  98539-4 0  9990
2 57521  43.0002 358.5110 0000438 192.5385 167.5456 15.27569274163150
STARLINK-30256          
1 57522U 23115B   26196.75660957  .00001076  00000+0  48644-4 0  9995
2 57522  43.0038 358.6683 0001306 261.9702  98.1001 15.27567026161937
STARLINK-30261          
1 57523U 23115C   26196.87967513 -.00000724  00000+0 -16771-4 0  9994
2 57523  43.0029 357.8717 0001306 275.3628  84.7075 15.27576393161954
STARLINK-30260          
1 57524U 23115D   26196.73091120  .00000863  00000+0  40890-4 0  9993
2 57524  43.0043 358.5004 0001503 262.8689  97.1991 15.27576124161930
STARLINK-30253          
1 57525U 23115E   26196.80785968  .00000640  00000+0  32763-4 0  9995
2 57525  43.0010 358.1975 0001040 247.7240 112.3502 15.27575706161943
STARLINK-30257          
1 57526U 23115F   26197.13094649  .00000079  00000+0  12401-4 0  9995
2 57526  43.0006 356.3490 0000775 279.7278  80.3486 15.27574748161996
STARLINK-30250          
1 57527U 23115G   26196.87710398  .00000029  00000+0  10560-4 0  9991
2 57527  43.0009 357.8525 0000673 282.8236  77.2541 15.27574257162859
STARLINK-30269          
1 57528U 23115H   26196.50277715  .00000346  00000+0  22078-4 0  9992
2 57528  43.0028   0.2264 0000964 255.4418 104.6327 15.27574957161898
STARLINK-30266          
1 57529U 23115J   26196.84755279 -.00001334  00000+0 -38950-4 0  9992
2 57529  43.0031 357.6413 0001544 263.1088  96.9588 15.27575467161958
STARLINK-30270          
1 57530U 23115K   26196.51290882  .00016730  00000+0  61586-3 0  9996
2 57530  42.9992 359.4366 0001162 212.6540 147.4240 15.27592970161909
STARLINK-30268          
1 57531U 23115L   26196.43352908  .00001404  00000+0  60557-4 0  9996
2 57531  43.0039   0.5543 0001687 230.7237 129.3466 15.27575315161881
STARLINK-30251          
1 57532U 23115M   26197.17062852  .00000538  00000+0  29081-4 0  9999
2 57532  43.0054 355.7690 0001392 260.9102  99.1593 15.27574029162007
